start=new Date('2021-10-24T00:00:00.000Z').valueOf();
sats=[{"COUNTRY_CODE":"US","NORAD_CAT_ID":"46759","MEAN_ANOMALY":"269.4909","REF_FRAME":"TEME","GP_ID":"188024959","BSTAR":"-0.00000715600000","EPHEMERIS_TYPE":"0","INCLINATION":"53.0554","CLASSIFICATION_TYPE":"U","CENTER_NAME":"EARTH","SITE":"AFETR","ARG_OF_PERICENTER":"90.6217","OBJECT_NAME":"STARLINK-1833","ELEMENT_SET_NO":"999","FILE":"3181152","APOAPSIS":"548.051","TIME_SYSTEM":"UTC","DECAY_DATE":null,"OBJECT_ID":"2020-074W","MEAN_MOTION":"15.06396926","MEAN_MOTION_DDOT":"0.0000000000000","REV_AT_EPOCH":"5557","MEAN_ELEMENT_THEORY":"SGP4","PERIAPSIS":"546.395","LAUNCH_DATE":"2020-10-24","TLE_LINE2":"2 46759  53.0554 311.2053 0001195  90.6217 269.4909 15.06396926 55579","EPOCH":"2021-10-23T11:45:33.276672","MEAN_MOTION_DOT":"-0.00000388","OBJECT_TYPE":"PAYLOAD","PERIOD":"95.592","ECCENTRICITY":"0.00011950","RCS_SIZE":"LARGE","SEMIMAJOR_AXIS":"6925.358","TLE_LINE1":"1 46759U 20074W   21296.48996848 -.00000388  00000-0 -71560-5 0  9995","RA_OF_ASC_NODE":"311.2053"},{"BSTAR":"0.00012142000000","GP_ID":"188023707","REF_FRAME":"TEME","NORAD_CAT_ID":"46760","MEAN_ANOMALY":"272.7049","COUNTRY_CODE":"US","CENTER_NAME":"EARTH","CLASSIFICATION_TYPE":"U","INCLINATION":"53.0533","EPHEMERIS_TYPE":"0","APOAPSIS":"548.066","FILE":"3181152","ELEMENT_SET_NO":"999","OBJECT_NAME":"STARLINK-1896","ARG_OF_PERICENTER":"87.4079","SITE":"AFETR","MEAN_MOTION_DDOT":"0.0000000000000","MEAN_MOTION":"15.06395101","OBJECT_ID":"2020-074X","DECAY_DATE":null,"TIME_SYSTEM":"UTC","LAUNCH_DATE":"2020-10-24","MEAN_ELEMENT_THEORY":"SGP4","PERIAPSIS":"546.391","REV_AT_EPOCH":"5556","OBJECT_TYPE":"PAYLOAD","MEAN_MOTION_DOT":"0.00001527","EPOCH":"2021-10-23T08:50:24.199296","TLE_LINE2":"2 46760  53.0533 311.7713 0001209  87.4079 272.7049 15.06395101 55567","PERIOD":"95.592","RA_OF_ASC_NODE":"311.7713","TLE_LINE1":"1 46760U 20074X   21296.36833564  .00001527  00000-0  12142-3 0  9992","SEMIMAJOR_AXIS":"6925.364","RCS_SIZE":"LARGE","ECCENTRICITY":"0.00012090"},{"RCS_SIZE":"LARGE","ECCENTRICITY":"0.00021950","SEMIMAJOR_AXIS":"6698.510","TLE_LINE1":"1 46762U 20074Z   21296.70272030  .00933208  00000-0  37442-2 0  9996","RA_OF_ASC_NODE":"285.9551","PERIOD":"90.934","TLE_LINE2":"2 46762  53.0527 285.9551 0002195  72.9515 287.1748 15.83563455 55956","EPOCH":"2021-10-23T16:51:55.033920","OBJECT_TYPE":"PAYLOAD","MEAN_MOTION_DOT":"0.00933208","REV_AT_EPOCH":"5595","LAUNCH_DATE":"2020-10-24","MEAN_ELEMENT_THEORY":"SGP4","PERIAPSIS":"318.904","TIME_SYSTEM":"UTC","OBJECT_ID":"2020-074Z","DECAY_DATE":null,"MEAN_MOTION_DDOT":"0.0000000000000","MEAN_MOTION":"15.83563455","SITE":"AFETR","ARG_OF_PERICENTER":"72.9515","FILE":"3181152","ELEMENT_SET_NO":"999","APOAPSIS":"321.845","OBJECT_NAME":"STARLINK-1901","EPHEMERIS_TYPE":"0","CLASSIFICATION_TYPE":"U","INCLINATION":"53.0527","CENTER_NAME":"EARTH","COUNTRY_CODE":"US","NORAD_CAT_ID":"46762","MEAN_ANOMALY":"287.1748","GP_ID":"188023957","REF_FRAME":"TEME","BSTAR":"0.00374420000000"},{"CENTER_NAME":"EARTH","CLASSIFICATION_TYPE":"U","INCLINATION":"53.0557","EPHEMERIS_TYPE":"0","BSTAR":"-0.00001816700000","GP_ID":"188024709","REF_FRAME":"TEME","MEAN_ANOMALY":"275.9617","NORAD_CAT_ID":"46763","COUNTRY_CODE":"US","MEAN_MOTION_DDOT":"0.0000000000000","MEAN_MOTION":"15.05588443","OBJECT_ID":"2020-074AA","DECAY_DATE":null,"TIME_SYSTEM":"UTC","ELEMENT_SET_NO":"999","FILE":"3181152","APOAPSIS":"550.637","OBJECT_NAME":"STARLINK-1902","ARG_OF_PERICENTER":"84.1525","SITE":"AFETR","OBJECT_TYPE":"PAYLOAD","MEAN_MOTION_DOT":"-0.00000544","EPOCH":"2021-10-23T07:34:14.944800","TLE_LINE2":"2 46763  53.0557 312.0170 0001349  84.1525 275.9617 15.05588443 55559","LAUNCH_DATE":"2020-10-24","MEAN_ELEMENT_THEORY":"SGP4","PERIAPSIS":"548.767","REV_AT_EPOCH":"5555","RA_OF_ASC_NODE":"312.0170","TLE_LINE1":"1 46763U 20074AA  21296.31545075 -.00000544  00000-0 -18167-4 0  9991","SEMIMAJOR_AXIS":"6927.837","RCS_SIZE":"LARGE","ECCENTRICITY":"0.00013490","PERIOD":"95.644"},{"MEAN_ANOMALY":"275.1561","NORAD_CAT_ID":"46764","COUNTRY_CODE":"US","BSTAR":"0.00010497000000","REF_FRAME":"TEME","GP_ID":"188025459","EPHEMERIS_TYPE":"0","CENTER_NAME":"EARTH","CLASSIFICATION_TYPE":"U","INCLINATION":"53.0537","SITE":"AFETR","ARG_OF_PERICENTER":"84.9572","APOAPSIS":"548.143","FILE":"3181152","ELEMENT_SET_NO":"999","OBJECT_NAME":"STARLINK-1903","TIME_SYSTEM":"UTC","MEAN_MOTION_DDOT":"0.0000000000000","MEAN_MOTION":"15.06382901","OBJECT_ID":"2020-074AB","DECAY_DATE":null,"LAUNCH_DATE":"2020-10-24","MEAN_ELEMENT_THEORY":"SGP4","PERIAPSIS":"546.389","REV_AT_EPOCH":"5557","EPOCH":"2021-10-23T10:15:20.587104","TLE_LINE2":"2 46764  53.0537 311.4960 0001266  84.9572 275.1561 15.06382901 55570","OBJECT_TYPE":"PAYLOAD","MEAN_MOTION_DOT":"0.00001282","PERIOD":"95.593","TLE_LINE1":"1 46764U 20074AB  21296.42732161  .00001282  00000-0  10497-3 0  9993","RCS_SIZE":"LARGE","ECCENTRICITY":"0.00012660","SEMIMAJOR_AXIS":"6925.401","RA_OF_ASC_NODE":"311.4960"},{"ARG_OF_PERICENTER":"81.9014","SITE":"AFETR","OBJECT_NAME":"STARLINK-1906","FILE":"3181152","ELEMENT_SET_NO":"999","APOAPSIS":"548.149","TIME_SYSTEM":"UTC","MEAN_MOTION":"15.06391131","MEAN_MOTION_DDOT":"0.0000000000000","DECAY_DATE":null,"OBJECT_ID":"2020-074AC","NORAD_CAT_ID":"46765","MEAN_ANOMALY":"278.2123","COUNTRY_CODE":"US","BSTAR":"-0.00002298200000","GP_ID":"188024207","REF_FRAME":"TEME","EPHEMERIS_TYPE":"0","CENTER_NAME":"EARTH","INCLINATION":"53.0569","CLASSIFICATION_TYPE":"U","PERIOD":"95.593","TLE_LINE1":"1 46765U 20074AC  21296.74798441 -.00000624  00000-0 -22982-4 0  9996","RCS_SIZE":"LARGE","ECCENTRICITY":"0.00013110","SEMIMAJOR_AXIS":"6925.376","RA_OF_ASC_NODE":"310.0568","MEAN_ELEMENT_THEORY":"SGP4","PERIAPSIS":"546.333","LAUNCH_DATE":"2020-10-24","REV_AT_EPOCH":"5561","EPOCH":"2021-10-23T17:57:05.853024","TLE_LINE2":"2 46765  53.0569 310.0568 0001311  81.9014 278.2123 15.06391131 55612","MEAN_MOTION_DOT":"-0.00000624","OBJECT_TYPE":"PAYLOAD"},{"TLE_LINE2":"2 46766  53.0535 310.1029 0001284  75.8696 284.2436 15.06396437 55625","EPOCH":"2021-10-23T17:46:29.427168","MEAN_MOTION_DOT":"0.00001456","OBJECT_TYPE":"PAYLOAD","REV_AT_EPOCH":"5562","PERIAPSIS":"546.335","MEAN_ELEMENT_THEORY":"SGP4","LAUNCH_DATE":"2020-10-24","SEMIMAJOR_AXIS":"6925.359","RCS_SIZE":"LARGE","ECCENTRICITY":"0.00012840","TLE_LINE1":"1 46766U 20074AD  21296.74061837  .00001456  00000-0  11664-3 0  9995","RA_OF_ASC_NODE":"310.1029","PERIOD":"95.592","EPHEMERIS_TYPE":"0","INCLINATION":"53.0535","CLASSIFICATION_TYPE":"U","CENTER_NAME":"EARTH","COUNTRY_CODE":"US","MEAN_ANOMALY":"284.2436","NORAD_CAT_ID":"46766","REF_FRAME":"TEME","GP_ID":"188024457","BSTAR":"0.00011664000000","TIME_SYSTEM":"UTC","DECAY_DATE":null,"OBJECT_ID":"2020-074AD","MEAN_MOTION":"15.06396437","MEAN_MOTION_DDOT":"0.0000000000000","ARG_OF_PERICENTER":"75.8696","SITE":"AFETR","OBJECT_NAME":"STARLINK-1916","FILE":"3181152","ELEMENT_SET_NO":"999","APOAPSIS":"548.114"},{"OBJECT_TYPE":"PAYLOAD","MEAN_MOTION_DOT":"-0.00000053","TLE_LINE2":"2 46767  53.0535 311.4477 0001375  77.8832 282.2311 15.06393820 55579","EPOCH":"2021-10-23T10:31:15.226752","REV_AT_EPOCH":"5557","LAUNCH_DATE":"2020-10-24","MEAN_ELEMENT_THEORY":"SGP4","PERIAPSIS":"546.280","RA_OF_ASC_NODE":"311.4477","RCS_SIZE":"LARGE","ECCENTRICITY":"0.00013750","SEMIMAJOR_AXIS":"6925.367","TLE_LINE1":"1 46767U 20074AE  21296.43837068 -.00000053  00000-0  15365-4 0  9995","PERIOD":"95.593","CLASSIFICATION_TYPE":"U","INCLINATION":"53.0535","CENTER_NAME":"EARTH","EPHEMERIS_TYPE":"0","GP_ID":"188025209","REF_FRAME":"TEME","BSTAR":"0.00001536500000","COUNTRY_CODE":"US","NORAD_CAT_ID":"46767","MEAN_ANOMALY":"282.2311","OBJECT_ID":"2020-074AE","DECAY_DATE":null,"MEAN_MOTION_DDOT":"0.0000000000000","MEAN_MOTION":"15.06393820","TIME_SYSTEM":"UTC","ELEMENT_SET_NO":"999","FILE":"3181152","APOAPSIS":"548.185","OBJECT_NAME":"STARLINK-1917","ARG_OF_PERICENTER":"77.8832","SITE":"AFETR"},{"REV_AT_EPOCH":"5558","LAUNCH_DATE":"2020-10-24","MEAN_ELEMENT_THEORY":"SGP4","PERIAPSIS":"546.377","OBJECT_TYPE":"PAYLOAD","MEAN_MOTION_DOT":"0.00000900","TLE_LINE2":"2 46768  53.0557 311.1315 0001227  81.1044 279.0084 15.06395672 55580","EPOCH":"2021-10-23T12:12:05.740128","PERIOD":"95.592","RA_OF_ASC_NODE":"311.1315","ECCENTRICITY":"0.00012270","RCS_SIZE":"LARGE","SEMIMAJOR_AXIS":"6925.362","TLE_LINE1":"1 46768U 20074AF  21296.50839977  .00000900  00000-0  79334-4 0  9991","REF_FRAME":"TEME","GP_ID":"188024960","BSTAR":"0.00007933400000","COUNTRY_CODE":"US","NORAD_CAT_ID":"46768","MEAN_ANOMALY":"279.0084","CLASSIFICATION_TYPE":"U","INCLINATION":"53.0557","CENTER_NAME":"EARTH","EPHEMERIS_TYPE":"0","ELEMENT_SET_NO":"999","FILE":"3181152","APOAPSIS":"548.077","OBJECT_NAME":"STARLINK-1918","SITE":"AFETR","ARG_OF_PERICENTER":"81.1044","OBJECT_ID":"2020-074AF","DECAY_DATE":null,"MEAN_MOTION_DDOT":"0.0000000000000","MEAN_MOTION":"15.06395672","TIME_SYSTEM":"UTC"},{"EPOCH":"2021-10-23T11:03:04.444704","TLE_LINE2":"2 46769  53.0540 311.3623 0001205  70.4838 289.6281 15.06398610 55575","OBJECT_TYPE":"PAYLOAD","MEAN_MOTION_DOT":"0.00001370","LAUNCH_DATE":"2020-10-24","PERIAPSIS":"546.383","MEAN_ELEMENT_THEORY":"SGP4","REV_AT_EPOCH":"5557","TLE_LINE1":"1 46769U 20074AG  21296.46046811  .00001370  00000-0  11086-3 0  9995","ECCENTRICITY":"0.00012050","RCS_SIZE":"LARGE","SEMIMAJOR_AXIS":"6925.353","RA_OF_ASC_NODE":"311.3623","PERIOD":"95.592","EPHEMERIS_TYPE":"0","CENTER_NAME":"EARTH","CLASSIFICATION_TYPE":"U","INCLINATION":"53.0540","MEAN_ANOMALY":"289.6281","NORAD_CAT_ID":"46769","COUNTRY_CODE":"US","BSTAR":"0.00011086000000","REF_FRAME":"TEME","GP_ID":"188023708","TIME_SYSTEM":"UTC","MEAN_MOTION_DDOT":"0.0000000000000","MEAN_MOTION":"15.06398610","OBJECT_ID":"2020-074AG","DECAY_DATE":null,"ARG_OF_PERICENTER":"70.4838","SITE":"AFETR","FILE":"3181152","ELEMENT_SET_NO":"999","APOAPSIS":"548.052","OBJECT_NAME":"STARLINK-1919"}];
